[{"OBJECT_NAME":"IRNSS-1C","OBJECT_ID":"2014-061A","EPOCH":"2026-03-28T13:28:05.384352","MEAN_MOTION":1.00274244,"ECCENTRICITY":0.002071,"INCLINATION":6.3109,"RA_OF_ASC_NODE":90.4825,"ARG_OF_PERICENTER":355.8396,"MEAN_ANOMALY":24.6634,"EPHEMERIS_TYPE":0,"CLASSIFICATION_TYPE":"U","NORAD_CAT_ID":40269,"ELEMENT_SET_NO":999,"REV_AT_EPOCH":4188,"BSTAR":0,"MEAN_MOTION_DOT":-1.77e-6,"MEAN_MOTION_DDOT":0},{"OBJECT_NAME":"INTELSAT 30 (IS-30)","OBJECT_ID":"2014-062A","EPOCH":"2026-03-28T14:20:00.406752","MEAN_MOTION":1.00272022,"ECCENTRICITY":0.0001116,"INCLINATION":0.0203,"RA_OF_ASC_NODE":97.7386,"ARG_OF_PERICENTER":35.288,"MEAN_ANOMALY":172.9268,"EPHEMERIS_TYPE":0,"CLASSIFICATION_TYPE":"U","NORAD_CAT_ID":40271,"ELEMENT_SET_NO":999,"REV_AT_EPOCH":598,"BSTAR":0,"MEAN_MOTION_DOT":-1.7e-6,"MEAN_MOTION_DDOT":0},{"OBJECT_NAME":"ARSAT 1","OBJECT_ID":"2014-062B","EPOCH":"2026-03-28T19:34:38.448192","MEAN_MOTION":1.00272348,"ECCENTRICITY":0.0001694,"INCLINATION":0.0366,"RA_OF_ASC_NODE":286.3158,"ARG_OF_PERICENTER":64.468,"MEAN_ANOMALY":57.2823,"EPHEMERIS_TYPE":0,"CLASSIFICATION_TYPE":"U","NORAD_CAT_ID":40272,"ELEMENT_SET_NO":999,"REV_AT_EPOCH":4181,"BSTAR":0,"MEAN_MOTION_DOT":-2.79e-6,"MEAN_MOTION_DDOT":0},{"OBJECT_NAME":"EUTELSAT 53A","OBJECT_ID":"2014-064A","EPOCH":"2026-03-27T23:38:06.680256","MEAN_MOTION":1.0027085,"ECCENTRICITY":0.00013614,"INCLINATION":0.0232,"RA_OF_ASC_NODE":191.6703,"ARG_OF_PERICENTER":210.915,"MEAN_ANOMALY":190.351,"EPHEMERIS_TYPE":0,"CLASSIFICATION_TYPE":"U","NORAD_CAT_ID":40277,"ELEMENT_SET_NO":999,"REV_AT_EPOCH":4075,"BSTAR":0,"MEAN_MOTION_DOT":0,"MEAN_MOTION_DDOT":0},{"OBJECT_NAME":"GSAT-16","OBJECT_ID":"2014-078A","EPOCH":"2026-03-28T18:28:14.102688","MEAN_MOTION":1.00273796,"ECCENTRICITY":0.0005684,"INCLINATION":0.0462,"RA_OF_ASC_NODE":85.1532,"ARG_OF_PERICENTER":347.8157,"MEAN_ANOMALY":85.3472,"EPHEMERIS_TYPE":0,"CLASSIFICATION_TYPE":"U","NORAD_CAT_ID":40332,"ELEMENT_SET_NO":999,"REV_AT_EPOCH":4130,"BSTAR":0,"MEAN_MOTION_DOT":6.5e-7,"MEAN_MOTION_DDOT":0},{"OBJECT_NAME":"DIRECTV 14","OBJECT_ID":"2014-078B","EPOCH":"2026-03-28T14:18:45.526464","MEAN_MOTION":1.00267748,"ECCENTRICITY":3.97e-5,"INCLINATION":0.0201,"RA_OF_ASC_NODE":160.0555,"ARG_OF_PERICENTER":341.4138,"MEAN_ANOMALY":159.9958,"EPHEMERIS_TYPE":0,"CLASSIFICATION_TYPE":"U","NORAD_CAT_ID":40333,"ELEMENT_SET_NO":999,"REV_AT_EPOCH":4123,"BSTAR":0,"MEAN_MOTION_DOT":0,"MEAN_MOTION_DDOT":0},{"OBJECT_NAME":"YAMAL 401","OBJECT_ID":"2014-082A","EPOCH":"2026-03-27T13:32:32.540064","MEAN_MOTION":1.00270306,"ECCENTRICITY":3.72e-5,"INCLINATION":0.0038,"RA_OF_ASC_NODE":157.9388,"ARG_OF_PERICENTER":86.2381,"MEAN_ANOMALY":233.8925,"EPHEMERIS_TYPE":0,"CLASSIFICATION_TYPE":"U","NORAD_CAT_ID":40345,"ELEMENT_SET_NO":999,"REV_AT_EPOCH":4110,"BSTAR":0,"MEAN_MOTION_DOT":-2.47e-6,"MEAN_MOTION_DDOT":0},{"OBJECT_NAME":"ASTRA 2G","OBJECT_ID":"2014-089A","EPOCH":"2026-03-28T20:03:10.560096","MEAN_MOTION":1.0026909,"ECCENTRICITY":0.0004733,"INCLINATION":0.0218,"RA_OF_ASC_NODE":7.5322,"ARG_OF_PERICENTER":28.695,"MEAN_ANOMALY":119.0095,"EPHEMERIS_TYPE":0,"CLASSIFICATION_TYPE":"U","NORAD_CAT_ID":40364,"ELEMENT_SET_NO":999,"REV_AT_EPOCH":4116,"BSTAR":0,"MEAN_MOTION_DOT":0,"MEAN_MOTION_DDOT":0},{"OBJECT_NAME":"FENGYUN 2G","OBJECT_ID":"2014-090A","EPOCH":"2026-03-28T20:23:33.335232","MEAN_MOTION":1.00263574,"ECCENTRICITY":0.0001787,"INCLINATION":5.4364,"RA_OF_ASC_NODE":73.7716,"ARG_OF_PERICENTER":148.1043,"MEAN_ANOMALY":9.7239,"EPHEMERIS_TYPE":0,"CLASSIFICATION_TYPE":"U","NORAD_CAT_ID":40367,"ELEMENT_SET_NO":999,"REV_AT_EPOCH":4119,"BSTAR":0,"MEAN_MOTION_DOT":-3.15e-6,"MEAN_MOTION_DDOT":0},{"OBJECT_NAME":"MUOS-3","OBJECT_ID":"2015-002A","EPOCH":"2026-03-28T18:07:53.554944","MEAN_MOTION":1.00271888,"ECCENTRICITY":0.0051912,"INCLINATION":4.3665,"RA_OF_ASC_NODE":43.1118,"ARG_OF_PERICENTER":183.0971,"MEAN_ANOMALY":216.4874,"EPHEMERIS_TYPE":0,"CLASSIFICATION_TYPE":"U","NORAD_CAT_ID":40374,"ELEMENT_SET_NO":999,"REV_AT_EPOCH":4078,"BSTAR":0,"MEAN_MOTION_DOT":-1.44e-6,"MEAN_MOTION_DDOT":0},{"OBJECT_NAME":"INMARSAT 5-F2","OBJECT_ID":"2015-005A","EPOCH":"2026-03-28T11:06:04.530816","MEAN_MOTION":1.00268706,"ECCENTRICITY":7.48e-5,"INCLINATION":0.023,"RA_OF_ASC_NODE":168.0005,"ARG_OF_PERICENTER":177.805,"MEAN_ANOMALY":311.6167,"EPHEMERIS_TYPE":0,"CLASSIFICATION_TYPE":"U","NORAD_CAT_ID":40384,"ELEMENT_SET_NO":999,"REV_AT_EPOCH":4018,"BSTAR":0,"MEAN_MOTION_DOT":0,"MEAN_MOTION_DDOT":0},{"OBJECT_NAME":"ABS-3A","OBJECT_ID":"2015-010A","EPOCH":"2026-03-28T16:28:55.543872","MEAN_MOTION":1.00270505,"ECCENTRICITY":0.0001477,"INCLINATION":0.0106,"RA_OF_ASC_NODE":130.3605,"ARG_OF_PERICENTER":180.6232,"MEAN_ANOMALY":119.3617,"EPHEMERIS_TYPE":0,"CLASSIFICATION_TYPE":"U","NORAD_CAT_ID":40424,"ELEMENT_SET_NO":999,"REV_AT_EPOCH":4056,"BSTAR":0,"MEAN_MOTION_DOT":-4.6e-7,"MEAN_MOTION_DDOT":0},{"OBJECT_NAME":"EUTELSAT 115 WEST B","OBJECT_ID":"2015-010B","EPOCH":"2026-03-28T16:22:26.584032","MEAN_MOTION":1.00271912,"ECCENTRICITY":1.6e-5,"INCLINATION":0.0211,"RA_OF_ASC_NODE":36.3497,"ARG_OF_PERICENTER":42.4786,"MEAN_ANOMALY":237.9797,"EPHEMERIS_TYPE":0,"CLASSIFICATION_TYPE":"U","NORAD_CAT_ID":40425,"ELEMENT_SET_NO":999,"REV_AT_EPOCH":4058,"BSTAR":0,"MEAN_MOTION_DOT":-4.5e-7,"MEAN_MOTION_DDOT":0},{"OBJECT_NAME":"EXPRESS-AM7","OBJECT_ID":"2015-012A","EPOCH":"2026-03-28T20:06:32.736960","MEAN_MOTION":1.00273034,"ECCENTRICITY":0.0003016,"INCLINATION":0.0188,"RA_OF_ASC_NODE":111.9953,"ARG_OF_PERICENTER":239.6999,"MEAN_ANOMALY":176.1656,"EPHEMERIS_TYPE":0,"CLASSIFICATION_TYPE":"U","NORAD_CAT_ID":40505,"ELEMENT_SET_NO":999,"REV_AT_EPOCH":4020,"BSTAR":0,"MEAN_MOTION_DOT":1.31e-6,"MEAN_MOTION_DDOT":0},{"OBJECT_NAME":"BEIDOU-3S IGSO-1S","OBJECT_ID":"2015-019A","EPOCH":"2026-03-23T06:58:51.098016","MEAN_MOTION":1.00268843,"ECCENTRICITY":0.0036261,"INCLINATION":49.3559,"RA_OF_ASC_NODE":296.4949,"ARG_OF_PERICENTER":190.1236,"MEAN_ANOMALY":255.118,"EPHEMERIS_TYPE":0,"CLASSIFICATION_TYPE":"U","NORAD_CAT_ID":40549,"ELEMENT_SET_NO":999,"REV_AT_EPOCH":4021,"BSTAR":0,"MEAN_MOTION_DOT":-1.63e-6,"MEAN_MOTION_DDOT":0},{"OBJECT_NAME":"THOR 7","OBJECT_ID":"2015-022A","EPOCH":"2026-03-28T14:46:57.821664","MEAN_MOTION":1.00273117,"ECCENTRICITY":0.0002601,"INCLINATION":0.013,"RA_OF_ASC_NODE":191.6297,"ARG_OF_PERICENTER":173.1423,"MEAN_ANOMALY":42.3476,"EPHEMERIS_TYPE":0,"CLASSIFICATION_TYPE":"U","NORAD_CAT_ID":40613,"ELEMENT_SET_NO":999,"REV_AT_EPOCH":4000,"BSTAR":0,"MEAN_MOTION_DOT":-2.8e-7,"MEAN_MOTION_DDOT":0},{"OBJECT_NAME":"TURKMENALEM52E/MONACOSAT","OBJECT_ID":"2015-023A","EPOCH":"2026-03-28T20:04:38.904096","MEAN_MOTION":1.00272864,"ECCENTRICITY":0.0003024,"INCLINATION":0.0397,"RA_OF_ASC_NODE":88.5255,"ARG_OF_PERICENTER":279.9782,"MEAN_ANOMALY":170.9037,"EPHEMERIS_TYPE":0,"CLASSIFICATION_TYPE":"U","NORAD_CAT_ID":40617,"ELEMENT_SET_NO":999,"REV_AT_EPOCH":4004,"BSTAR":0,"MEAN_MOTION_DOT":8.4e-7,"MEAN_MOTION_DDOT":0}]
